[{"OBJECT_NAME":"JINJUSAT-1B","OBJECT_ID":"2025-052A","EPOCH":"2026-03-09T15:55:38.242848","MEAN_MOTION":15.30194857,"ECCENTRICITY":0.00055504,"INCLINATION":97.4113,"RA_OF_ASC_NODE":325.4613,"ARG_OF_PERICENTER":82.193,"MEAN_ANOMALY":277.9941,"EPHEMERIS_TYPE":0,"CLASSIFICATION_TYPE":"U","NORAD_CAT_ID":63210,"ELEMENT_SET_NO":999,"REV_AT_EPOCH":5486,"BSTAR":0.00068430401,"MEAN_MOTION_DOT":0.00019955,"MEAN_MOTION_DDOT":0},{"OBJECT_NAME":"STARLINK-35500","OBJECT_ID":"2025-236H","EPOCH":"2026-03-09T11:32:10.345056","MEAN_MOTION":15.30164158,"ECCENTRICITY":0.00011602,"INCLINATION":53.1593,"RA_OF_ASC_NODE":104.7689,"ARG_OF_PERICENTER":74.6283,"MEAN_ANOMALY":285.4846,"EPHEMERIS_TYPE":0,"CLASSIFICATION_TYPE":"U","NORAD_CAT_ID":66093,"ELEMENT_SET_NO":999,"REV_AT_EPOCH":2291,"BSTAR":0.0010640103,"MEAN_MOTION_DOT":0.00031251,"MEAN_MOTION_DDOT":0}]
